start=new Date('2021-11-11T00:00:00.000Z').valueOf();
sats=[{"REV_AT_EPOCH":"4272","TLE_LINE1":"1 47573U 21009AB  21314.26218598  .00007361  00000-0  51224-3 0  9994","OBJECT_TYPE":"PAYLOAD","SITE":"AFETR","RA_OF_ASC_NODE":"266.4220","DECAY_DATE":null,"APOAPSIS":"548.195","EPHEMERIS_TYPE":"0","LAUNCH_DATE":"2021-02-04","EPOCH":"2021-11-10T06:17:32.868672","MEAN_ELEMENT_THEORY":"SGP4","COUNTRY_CODE":"US","TLE_LINE2":"2 47573  53.0524 266.4220 0001519  67.7969 292.3181 15.06423073 42721","MEAN_MOTION":"15.06423073","OBJECT_ID":"2021-009AB","RCS_SIZE":"LARGE","NORAD_CAT_ID":"47573","INCLINATION":"53.0524","SEMIMAJOR_AXIS":"6925.278","PERIOD":"95.591","ELEMENT_SET_NO":"999","OBJECT_NAME":"STARLINK-1975","MEAN_ANOMALY":"292.3181","FILE":"3211038","CLASSIFICATION_TYPE":"U","REF_FRAME":"TEME","BSTAR":"0.00051224000000","PERIAPSIS":"546.091","MEAN_MOTION_DOT":"0.00007361","CENTER_NAME":"EARTH","GP_ID":"189424228","MEAN_MOTION_DDOT":"0.0000000000000","TIME_SYSTEM":"UTC","ARG_OF_PERICENTER":"67.7969","ECCENTRICITY":"0.00015190"},{"OBJECT_NAME":"STARLINK-1976","ELEMENT_SET_NO":"999","PERIOD":"95.592","MEAN_ANOMALY":"297.6516","INCLINATION":"53.0565","NORAD_CAT_ID":"47574","RCS_SIZE":"LARGE","SEMIMAJOR_AXIS":"6925.362","BSTAR":"0.00004593400000","FILE":"3211038","REF_FRAME":"TEME","CLASSIFICATION_TYPE":"U","TIME_SYSTEM":"UTC","GP_ID":"189424480","CENTER_NAME":"EARTH","PERIAPSIS":"546.197","MEAN_MOTION_DOT":"0.00000403","MEAN_MOTION_DDOT":"0.0000000000000","ECCENTRICITY":"0.00014880","ARG_OF_PERICENTER":"62.4624","OBJECT_TYPE":"PAYLOAD","TLE_LINE1":"1 47574U 21009AC  21314.34419892  .00000403  00000-0  45934-4 0  9996","REV_AT_EPOCH":"4231","SITE":"AFETR","APOAPSIS":"548.258","DECAY_DATE":null,"EPHEMERIS_TYPE":"0","RA_OF_ASC_NODE":"296.0569","COUNTRY_CODE":"US","TLE_LINE2":"2 47574  53.0565 296.0569 0001488  62.4624 297.6516 15.06395526 42313","MEAN_MOTION":"15.06395526","OBJECT_ID":"2021-009AC","EPOCH":"2021-11-10T08:15:38.786688","LAUNCH_DATE":"2021-02-04","MEAN_ELEMENT_THEORY":"SGP4"},{"APOAPSIS":"548.255","DECAY_DATE":null,"EPHEMERIS_TYPE":"0","RA_OF_ASC_NODE":"296.1097","OBJECT_TYPE":"PAYLOAD","TLE_LINE1":"1 47575U 21009AD  21314.33313959  .00001123  00000-0  94270-4 0  9990","REV_AT_EPOCH":"4231","SITE":"AFETR","COUNTRY_CODE":"US","TLE_LINE2":"2 47575  53.0549 296.1097 0001512  73.4863 286.6292 15.06401757 42311","MEAN_MOTION":"15.06401757","OBJECT_ID":"2021-009AD","EPOCH":"2021-11-10T07:59:43.260576","LAUNCH_DATE":"2021-02-04","MEAN_ELEMENT_THEORY":"SGP4","BSTAR":"0.00009427000000","FILE":"3211038","REF_FRAME":"TEME","CLASSIFICATION_TYPE":"U","OBJECT_NAME":"STARLINK-1977","PERIOD":"95.592","ELEMENT_SET_NO":"999","MEAN_ANOMALY":"286.6292","NORAD_CAT_ID":"47575","INCLINATION":"53.0549","RCS_SIZE":"LARGE","SEMIMAJOR_AXIS":"6925.343","ECCENTRICITY":"0.00015120","ARG_OF_PERICENTER":"73.4863","TIME_SYSTEM":"UTC","GP_ID":"189424707","PERIAPSIS":"546.161","MEAN_MOTION_DOT":"0.00001123","CENTER_NAME":"EARTH","MEAN_MOTION_DDOT":"0.0000000000000"},{"RA_OF_ASC_NODE":"255.0792","EPHEMERIS_TYPE":"0","DECAY_DATE":null,"APOAPSIS":"548.195","SITE":"AFETR","TLE_LINE1":"1 47576U 21009AE  21314.56535241  .00006278  00000-0  43971-3 0  9993","REV_AT_EPOCH":"4291","OBJECT_TYPE":"PAYLOAD","MEAN_ELEMENT_THEORY":"SGP4","LAUNCH_DATE":"2021-02-04","EPOCH":"2021-11-10T13:34:06.448224","OBJECT_ID":"2021-009AE","TLE_LINE2":"2 47576  53.0517 255.0792 0001517  73.9723 286.1433 15.06422624 42912","MEAN_MOTION":"15.06422624","COUNTRY_CODE":"US","CLASSIFICATION_TYPE":"U","REF_FRAME":"TEME","FILE":"3211038","BSTAR":"0.00043971000000","SEMIMAJOR_AXIS":"6925.279","RCS_SIZE":"LARGE","INCLINATION":"53.0517","NORAD_CAT_ID":"47576","MEAN_ANOMALY":"286.1433","PERIOD":"95.591","ELEMENT_SET_NO":"999","OBJECT_NAME":"STARLINK-1978","ARG_OF_PERICENTER":"73.9723","ECCENTRICITY":"0.00015170","MEAN_MOTION_DDOT":"0.0000000000000","MEAN_MOTION_DOT":"0.00006278","PERIAPSIS":"546.094","CENTER_NAME":"EARTH","GP_ID":"189424905","TIME_SYSTEM":"UTC"},{"ARG_OF_PERICENTER":"69.4666","ECCENTRICITY":"0.00015780","GP_ID":"189371905","MEAN_MOTION_DOT":"0.00004915","PERIAPSIS":"546.100","CENTER_NAME":"EARTH","MEAN_MOTION_DDOT":"0.0000000000000","TIME_SYSTEM":"UTC","FILE":"3210691","REF_FRAME":"TEME","CLASSIFICATION_TYPE":"U","BSTAR":"0.00034854000000","NORAD_CAT_ID":"47577","INCLINATION":"53.0549","RCS_SIZE":"LARGE","SEMIMAJOR_AXIS":"6925.328","OBJECT_NAME":"STARLINK-1979","ELEMENT_SET_NO":"999","PERIOD":"95.592","MEAN_ANOMALY":"290.6492","EPOCH":"2021-11-10T09:46:31.651392","LAUNCH_DATE":"2021-02-04","MEAN_ELEMENT_THEORY":"SGP4","COUNTRY_CODE":"US","OBJECT_ID":"2021-009AF","TLE_LINE2":"2 47577  53.0549 270.7888 0001578  69.4666 290.6492 15.06406832 43280","MEAN_MOTION":"15.06406832","RA_OF_ASC_NODE":"270.7888","APOAPSIS":"548.285","DECAY_DATE":null,"EPHEMERIS_TYPE":"0","OBJECT_TYPE":"PAYLOAD","TLE_LINE1":"1 47577U 21009AF  21314.40731078  .00004915  00000-0  34854-3 0  9999","REV_AT_EPOCH":"4328","SITE":"AFETR"},{"COUNTRY_CODE":"US","TLE_LINE2":"2 47578  53.0539 276.0988 0001417  66.4597 293.6541 15.06410929 42595","OBJECT_ID":"2021-009AG","MEAN_MOTION":"15.06410929","EPOCH":"2021-11-10T08:02:21.887520","LAUNCH_DATE":"2021-02-04","MEAN_ELEMENT_THEORY":"SGP4","OBJECT_TYPE":"PAYLOAD","REV_AT_EPOCH":"4259","TLE_LINE1":"1 47578U 21009AG  21314.33497555  .00002870  00000-0  21145-3 0  9998","SITE":"AFETR","APOAPSIS":"548.161","DECAY_DATE":null,"EPHEMERIS_TYPE":"0","RA_OF_ASC_NODE":"276.0988","TIME_SYSTEM":"UTC","GP_ID":"189424980","PERIAPSIS":"546.199","MEAN_MOTION_DOT":"0.00002870","CENTER_NAME":"EARTH","MEAN_MOTION_DDOT":"0.0000000000000","ECCENTRICITY":"0.00014170","ARG_OF_PERICENTER":"66.4597","OBJECT_NAME":"STARLINK-1980","PERIOD":"95.591","ELEMENT_SET_NO":"999","MEAN_ANOMALY":"293.6541","NORAD_CAT_ID":"47578","INCLINATION":"53.0539","RCS_SIZE":"LARGE","SEMIMAJOR_AXIS":"6925.315","BSTAR":"0.00021145000000","FILE":"3211038","REF_FRAME":"TEME","CLASSIFICATION_TYPE":"U"},{"ECCENTRICITY":"0.00015980","ARG_OF_PERICENTER":"67.7628","TIME_SYSTEM":"UTC","MEAN_MOTION_DOT":"0.00006244","PERIAPSIS":"546.067","CENTER_NAME":"EARTH","GP_ID":"189425207","MEAN_MOTION_DDOT":"0.0000000000000","BSTAR":"0.00043756000000","FILE":"3211038","CLASSIFICATION_TYPE":"U","REF_FRAME":"TEME","PERIOD":"95.591","ELEMENT_SET_NO":"999","OBJECT_NAME":"STARLINK-1981","MEAN_ANOMALY":"292.3531","RCS_SIZE":"LARGE","INCLINATION":"53.0538","NORAD_CAT_ID":"47579","SEMIMAJOR_AXIS":"6925.309","COUNTRY_CODE":"US","TLE_LINE2":"2 47579  53.0538 266.4773 0001598  67.7628 292.3531 15.06412882 42729","MEAN_MOTION":"15.06412882","OBJECT_ID":"2021-009AH","LAUNCH_DATE":"2021-02-04","EPOCH":"2021-11-10T06:01:37.485984","MEAN_ELEMENT_THEORY":"SGP4","DECAY_DATE":null,"APOAPSIS":"548.281","EPHEMERIS_TYPE":"0","RA_OF_ASC_NODE":"266.4773","TLE_LINE1":"1 47579U 21009AH  21314.25112831  .00006244  00000-0  43756-3 0  9992","REV_AT_EPOCH":"4272","OBJECT_TYPE":"PAYLOAD","SITE":"AFETR"},{"GP_ID":"189366685","MEAN_MOTION_DOT":"-0.00000496","PERIAPSIS":"546.061","CENTER_NAME":"EARTH","MEAN_MOTION_DDOT":"0.0000000000000","TIME_SYSTEM":"UTC","ARG_OF_PERICENTER":"72.2325","ECCENTRICITY":"0.00016600","INCLINATION":"53.0534","NORAD_CAT_ID":"47580","RCS_SIZE":"LARGE","SEMIMAJOR_AXIS":"6925.345","OBJECT_NAME":"STARLINK-1982","PERIOD":"95.592","ELEMENT_SET_NO":"999","MEAN_ANOMALY":"287.8845","FILE":"3210326","REF_FRAME":"TEME","CLASSIFICATION_TYPE":"U","BSTAR":"-0.00001440100000","EPOCH":"2021-11-10T04:56:35.481408","LAUNCH_DATE":"2021-02-04","MEAN_ELEMENT_THEORY":"SGP4","COUNTRY_CODE":"US","OBJECT_ID":"2021-009AJ","TLE_LINE2":"2 47580  53.0534 276.6721 0001660  72.2325 287.8845 15.06401015 43171","MEAN_MOTION":"15.06401015","OBJECT_TYPE":"PAYLOAD","TLE_LINE1":"1 47580U 21009AJ  21314.20596622 -.00000496  00000-0 -14401-4 0  9994","REV_AT_EPOCH":"4317","SITE":"AFETR","RA_OF_ASC_NODE":"276.6721","APOAPSIS":"548.360","DECAY_DATE":null,"EPHEMERIS_TYPE":"0"},{"TIME_SYSTEM":"UTC","MEAN_MOTION_DOT":"0.00001218","PERIAPSIS":"546.185","CENTER_NAME":"EARTH","GP_ID":"189424229","MEAN_MOTION_DDOT":"0.0000000000000","ECCENTRICITY":"0.00015050","ARG_OF_PERICENTER":"67.2564","ELEMENT_SET_NO":"999","PERIOD":"95.592","OBJECT_NAME":"STARLINK-1984","MEAN_ANOMALY":"292.8584","RCS_SIZE":"LARGE","NORAD_CAT_ID":"47581","INCLINATION":"53.0562","SEMIMAJOR_AXIS":"6925.363","BSTAR":"0.00010068000000","FILE":"3211038","CLASSIFICATION_TYPE":"U","REF_FRAME":"TEME","COUNTRY_CODE":"US","TLE_LINE2":"2 47581  53.0562 256.1732 0001505  67.2564 292.8584 15.06395405 42872","OBJECT_ID":"2021-009AK","MEAN_MOTION":"15.06395405","LAUNCH_DATE":"2021-02-04","EPOCH":"2021-11-10T07:38:28.756896","MEAN_ELEMENT_THEORY":"SGP4","TLE_LINE1":"1 47581U 21009AK  21314.31838839  .00001218  00000-0  10068-3 0  9991","REV_AT_EPOCH":"4287","OBJECT_TYPE":"PAYLOAD","SITE":"AFETR","DECAY_DATE":null,"APOAPSIS":"548.270","EPHEMERIS_TYPE":"0","RA_OF_ASC_NODE":"256.1732"},{"BSTAR":"0.00015368000000","FILE":"3211038","CLASSIFICATION_TYPE":"U","REF_FRAME":"TEME","ELEMENT_SET_NO":"999","PERIOD":"95.592","OBJECT_NAME":"STARLINK-1986","MEAN_ANOMALY":"290.5304","RCS_SIZE":"LARGE","NORAD_CAT_ID":"47582","INCLINATION":"53.0556","SEMIMAJOR_AXIS":"6925.323","ECCENTRICITY":"0.00016160","ARG_OF_PERICENTER":"69.5859","TIME_SYSTEM":"UTC","PERIAPSIS":"546.069","CENTER_NAME":"EARTH","MEAN_MOTION_DOT":"0.00002009","GP_ID":"189424481","MEAN_MOTION_DDOT":"0.0000000000000","DECAY_DATE":null,"APOAPSIS":"548.307","EPHEMERIS_TYPE":"0","RA_OF_ASC_NODE":"276.8396","REV_AT_EPOCH":"4257","TLE_LINE1":"1 47582U 21009AL  21314.17279104  .00002009  00000-0  15368-3 0  9997","OBJECT_TYPE":"PAYLOAD","SITE":"AFETR","COUNTRY_CODE":"US","TLE_LINE2":"2 47582  53.0556 276.8396 0001616  69.5859 290.5304 15.06408235 42574","OBJECT_ID":"2021-009AL","MEAN_MOTION":"15.06408235","LAUNCH_DATE":"2021-02-04","EPOCH":"2021-11-10T04:08:49.145856","MEAN_ELEMENT_THEORY":"SGP4"}];
